NORAD_CAT_ID,OBJECT_NAME,OBJECT_TYPE,EPOCH,MEAN_MOTION,ECCENTRICITY,INCLINATION,RA_OF_ASC_NODE,ARG_OF_PERICENTER,MEAN_ANOMALY,BSTAR,MEAN_MOTION_DOT,MEAN_MOTION_DDOT,TLE_LINE0,TLE_LINE1,TLE_LINE2,SEMIMAJOR_AXIS,PERIOD,APOGEE,PERIGEE,DECAYED
54159.0,STARLINK-5294,PAYLOAD,2024-08-08 22:17:25,15.08854296,0.0001322,53.216,87.8902,80.1802,279.934,0.00046895,7.186e-05,0.0,0 STARLINK-5294,1 54159U 22141C   24221.92877287  .00007186  00000-0  46895-3 0  9992,2 54159  53.2160  87.8902 0001322  80.1802 279.9340 15.08854296 98496,6917.837,95.437,540.616,538.787,0.0
54159.0,STARLINK-5294,PAYLOAD,2024-08-09 07:49:43,15.08860603,0.0001056,53.2166,86.1025,76.3025,283.8084,0.00049931,7.672e-05,0.0,0 STARLINK-5294,1 54159U 22141C   24222.32620345  .00007672  00000-0  49931-3 0  9992,2 54159  53.2166  86.1025 0001056  76.3025 283.8084 15.08860603 98553,6917.817,95.436,540.413,538.952,0.0
54159.0,STARLINK-5294,PAYLOAD,2024-08-09 14:11:17,15.08845755,0.0002474,53.2176,84.9203,98.4778,261.6494,9.197e-05,1.176e-05,0.0,0 STARLINK-5294,1 54159U 22141C   24222.59117157  .00001176  00000-0  91970-4 0  9997,2 54159  53.2176  84.9203 0002474  98.4778 261.6494 15.08845755 98597,6917.863,95.437,541.439,538.016,0.0
54159.0,STARLINK-5294,PAYLOAD,2024-08-09 20:32:50,15.08828727,0.0001604,53.2185,83.7297,116.9917,243.1239,-0.00018964,-3.304e-05,0.0,0 STARLINK-5294,1 54159U 22141C   24222.85613649 -.00003304  00000-0 -18964-3 0  9991,2 54159  53.2185  83.7297 0001604 116.9917 243.1239 15.08828727 98639,6917.915,95.438,540.889,538.67,0.0
54159.0,STARLINK-5294,PAYLOAD,2024-08-10 01:18:59,15.08836869,9.98e-05,53.2152,82.833,92.2785,267.8321,3.8149e-05,3.19e-06,0.0,0 STARLINK-5294,1 54159U 22141C   24223.05485563  .00000319  00000-0  38149-4 0  9995,2 54159  53.2152  82.8330 0000998  92.2785 267.8321 15.08836869 98669,6917.89,95.438,540.445,539.065,0.0
54159.0,STARLINK-5294,PAYLOAD,2024-08-10 14:02:04,15.08838963,9.38e-05,53.2156,80.4545,86.4144,273.6955,0.00015639,2.202e-05,0.0,0 STARLINK-5294,1 54159U 22141C   24223.58477892  .00002202  00000-0  15639-3 0  9990,2 54159  53.2156  80.4545 0000938  86.4144 273.6955 15.08838963 98747,6917.884,95.438,540.397,539.1,0.0
54159.0,STARLINK-5294,PAYLOAD,2024-08-10 20:23:37,15.08842176,9.57e-05,53.2157,79.265,92.8284,267.2818,0.00040719,6.199e-05,0.0,0 STARLINK-5294,1 54159U 22141C   24223.84973950  .00006199  00000-0  40719-3 0  9991,2 54159  53.2157  79.2650 0000957  92.8284 267.2818 15.08842176 98780,6917.874,95.437,540.401,539.077,0.0
54159.0,STARLINK-5294,PAYLOAD,2024-08-11 20:14:24,15.0885256,0.0001041,53.2163,74.8048,93.2772,266.8339,0.00048468,7.437e-05,0.0,0 STARLINK-5294,1 54159U 22141C   24224.84333707  .00007437  00000-0  48468-3 0  9997,2 54159  53.2163  74.8048 0001041  93.2772 266.8339 15.08852560 98939,6917.842,95.437,540.427,538.987,0.0
54159.0,STARLINK-5294,PAYLOAD,2024-08-12 07:22:05,15.08862876,0.0001269,53.2179,72.7244,85.0964,275.0173,0.0005489,8.464e-05,0.0,0 STARLINK-5294,1 54159U 22141C   24225.30701051  .00008464  00000-0  54890-3 0  9997,2 54159  53.2179  72.7244 0001269  85.0964 275.0173 15.08862876 99003,6917.81,95.436,540.553,538.798,0.0
54159.0,STARLINK-5294,PAYLOAD,2024-08-12 21:40:33,15.08857059,0.0001207,53.2162,70.0474,94.0717,266.0413,0.00036124,5.469e-05,0.0,0 STARLINK-5294,1 54159U 22141C   24225.90316820  .00005469  00000-0  36124-3 0  9991,2 54159  53.2162  70.0474 0001207  94.0717 266.0413 15.08857059 99092,6917.828,95.436,540.528,538.858,0.0
54159.0,STARLINK-5294,PAYLOAD,2024-08-13 07:12:52,15.08854613,0.0001296,53.2168,68.261,108.2376,251.8757,0.00023983,3.533e-05,0.0,0 STARLINK-5294,1 54159U 22141C   24226.30060437  .00003533  00000-0  23983-3 0  9995,2 54159  53.2168  68.2610 0001296 108.2376 251.8757 15.08854613 99159,6917.836,95.437,540.597,538.804,0.0
54159.0,STARLINK-5294,PAYLOAD,2024-08-13 19:55:59,15.0880631,0.0004311,53.2045,65.8827,94.1154,266.0331,-0.00049317,-8.124e-05,0.0,0 STARLINK-5294,1 54159U 22141C   24226.83055513 -.00008124  00000-0 -49317-3 0  9994,2 54159  53.2045  65.8827 0004311  94.1154 266.0331 15.08806310 99230,6917.983,95.44,542.831,536.866,0.0
54159.0,STARLINK-5294,PAYLOAD,2024-08-13 21:31:23,15.08785461,0.0002622,53.2131,65.5895,83.3999,276.7291,-0.00093981,-0.00015193,0.0,0 STARLINK-5294,1 54159U 22141C   24226.89680018 -.00015193  00000-0 -93981-3 0  9994,2 54159  53.2131  65.5895 0002622  83.3999 276.7291 15.08785461 99245,6918.047,95.441,541.726,538.098,0.0
54159.0,STARLINK-5294,PAYLOAD,2024-08-13 23:06:46,15.08804255,0.0002273,53.2149,65.2903,87.4486,272.6766,-0.00024757,-4.222e-05,0.0,0 STARLINK-5294,1 54159U 22141C   24226.96303949 -.00004222  00000-0 -24757-3 0  9993,2 54159  53.2149  65.2903 0002273  87.4486 272.6766 15.08804255 99255,6917.99,95.44,541.427,538.282,0.0
54159.0,STARLINK-5294,PAYLOAD,2024-08-14 19:46:47,15.08852045,0.0001685,53.2175,61.4267,83.3442,276.7742,0.0012398,0.00019505,0.0,0 STARLINK-5294,1 54159U 22141C   24227.82416201  .00019505  00000-0  12398-2 0  9990,2 54159  53.2175  61.4267 0001685  83.3442 276.7742 15.08852045 99381,6917.844,95.437,540.874,538.543,0.0
54159.0,STARLINK-5294,PAYLOAD,2024-08-14 21:22:10,15.08861456,0.0001778,53.2179,61.1291,80.5648,279.5545,0.0013235,0.00020851,0.0,0 STARLINK-5294,1 54159U 22141C   24227.89040034  .00020851  00000-0  13235-2 0  9991,2 54159  53.2179  61.1291 0001778  80.5648 279.5545 15.08861456 99398,6917.815,95.436,540.91,538.45,0.0
54159.0,STARLINK-5294,PAYLOAD,2024-08-16 05:09:52,15.08884071,0.0002232,53.2175,55.182,72.5816,287.542,0.0014873,0.00023491,0.0,0 STARLINK-5294,1 54159U 22141C   24229.21518853  .00023491  00000-0  14873-2 0  9990,2 54159  53.2175  55.1820 0002232  72.5816 287.5420 15.08884071 99590,6917.746,95.435,541.155,538.067,0.0
54159.0,STARLINK-5294,PAYLOAD,2024-08-16 21:03:44,15.08843276,0.0003571,53.2181,52.2063,76.1959,283.9431,0.00067004,0.00010393,0.0,0 STARLINK-5294,1 54159U 22141C   24229.87759441  .00010393  00000-0  67004-3 0  9994,2 54159  53.2181  52.2063 0003571  76.1959 283.9431 15.08843276 99694,6917.87,95.437,542.206,537.265,0.0
54159.0,STARLINK-5294,PAYLOAD,2024-08-17 20:54:30,15.0884113,0.0001856,53.2172,47.7446,81.0153,279.1049,0.00031264,4.691e-05,0.0,0 STARLINK-5294,1 54159U 22141C   24230.87118986  .00004691  00000-0  31264-3 0  9992,2 54159  53.2172  47.7446 0001856  81.0153 279.1049 15.08841130 99849,6917.877,95.437,541.026,538.458,0.0
54159.0,STARLINK-5294,PAYLOAD,2024-08-17 22:29:53,15.08841667,0.0001107,53.2175,47.4492,100.8358,259.2758,0.00026596,3.948e-05,0.0,0 STARLINK-5294,1 54159U 22141C   24230.93742653  .00003948  00000-0  26596-3 0  9999,2 54159  53.2175  47.4492 0001107 100.8358 259.2758 15.08841667 99858,6917.875,95.437,540.506,538.974,0.0
54159.0,STARLINK-5294,PAYLOAD,2024-08-18 19:09:54,15.0885169,0.0001404,53.2168,43.5843,85.0056,275.1096,0.00034756,5.25e-05,0.0,0 STARLINK-5294,1 54159U 22141C   24231.79854371  .00005250  00000-0  34756-3 0  9990,2 54159  53.2168  43.5843 0001404  85.0056 275.1096 15.08851690 99989,6917.845,95.437,540.681,538.738,0.0
54159.0,STARLINK-5294,PAYLOAD,2024-08-19 04:42:12,15.08854606,0.0001403,53.2165,41.8001,84.0613,276.0539,0.00033438,5.04e-05,0.0,0 STARLINK-5294,1 54159U 22141C   24232.19598037  .00005040  00000-0  33438-3 0  9992,2 54159  53.2165  41.8001 0001403  84.0613 276.0539 15.08854606100042,6917.836,95.437,540.671,538.73,0.0
54159.0,STARLINK-5294,PAYLOAD,2024-08-19 19:00:41,15.08833969,0.0001325,53.2166,39.1237,86.6853,273.4291,-9.9575e-05,-1.872e-05,0.0,0 STARLINK-5294,1 54159U 22141C   24232.79214776 -.00001872  00000-0 -99575-4 0  9999,2 54159  53.2166  39.1237 0001325  86.6853 273.4291 15.08833969100136,6917.899,95.438,540.68,538.847,0.0
54159.0,STARLINK-5294,PAYLOAD,2024-08-20 10:54:33,15.08842843,0.0001551,53.2176,36.1479,98.6278,261.489,0.00047783,7.325e-05,0.0,0 STARLINK-5294,1 54159U 22141C   24233.45454873  .00007325  00000-0  47783-3 0  9997,2 54159  53.2176  36.1479 0001551  98.6278 261.4890 15.08842843100231,6917.872,95.437,540.81,538.664,0.0
54159.0,STARLINK-5294,PAYLOAD,2024-08-20 17:16:05,15.08848624,0.0001422,53.2183,34.9597,90.0709,270.0446,0.00078065,0.00012161,0.0,0 STARLINK-5294,1 54159U 22141C   24233.71950860  .00012161  00000-0  78065-3 0  9994,2 54159  53.2183  34.9597 0001422  90.0709 270.0446 15.08848624100278,6917.854,95.437,540.703,538.735,0.0
54159.0,STARLINK-5294,PAYLOAD,2024-08-21 13:56:06,15.08844327,0.0001132,53.2177,31.0947,91.2534,268.8588,0.00031524,4.733e-05,0.0,0 STARLINK-5294,1 54159U 22141C   24234.58062920  .00004733  00000-0  31524-3 0  9996,2 54159  53.2177  31.0947 0001132  91.2534 268.8588 15.08844327100408,6917.867,95.437,540.515,538.949,0.0
54159.0,STARLINK-5294,PAYLOAD,2024-08-21 15:31:29,15.08838476,0.0002157,53.2185,30.7872,135.5966,224.52,3.2271e-05,2.25e-06,0.0,0 STARLINK-5294,1 54159U 22141C   24234.64686576  .00000225  00000-0  32271-4 0  9995,2 54159  53.2185  30.7872 0002157 135.5966 224.5200 15.08838476100418,6917.885,95.438,541.242,538.258,0.0
54159.0,STARLINK-5294,PAYLOAD,2024-08-21 20:17:39,15.0884083,0.0001084,53.2185,29.9068,74.8804,285.2308,0.00018523,2.661e-05,0.0,0 STARLINK-5294,1 54159U 22141C   24234.84559089  .00002661  00000-0  18523-3 0  9994,2 54159  53.2185  29.9068 0001084  74.8804 285.2308 15.08840830100442,6917.878,95.438,540.493,538.993,0.0
